STARLINK-32786          
1 62528U 25004T   26068.42956381  .00046990  00000+0  17049-2 0  9994
2 62528  43.0000 220.9248 0001643 257.5437 102.5230 15.27605327 65479
TROLL                   
1 62658U 25009BB  26068.22522958  .00013174  00000+0  48220-3 0  9994
2 62658  97.3932 150.7169 0001816  59.1850 300.9568 15.28164315118170
